[
  {
    "OBJECT_NAME": "STARLINK-1669",
    "OBJECT_ID": "21012E",
    "EPOCH": "2025-11-11T06:26:43.576224",
    "MEAN_MOTION": 15.40084951,
    "ECCENTRICITY": 0.0012322,
    "INCLINATION": 53.0474,
    "RA_OF_ASC_NODE": 204.0283,
    "ARG_OF_PERICENTER": 86.7684,
    "MEAN_ANOMALY": 273.4729,
    "EPHEMERIS_TYPE": 0,
    "CLASSIFICATION_TYPE": "U",
    "NORAD_CAT_ID": 47624,
    "ELEMENT_SET_NO": 999,
    "REV_AT_EPOCH": 26270,
    "BSTAR": 0.0010659,
    "MEAN_MOTION_DOT": 0.00043244,
    "MEAN_MOTION_DDOT": 0.0,
    "TLE_LINE1": "1 47624U 21012E   25315.26855991  .00043244  00000+0  10659-2 0  9999",
    "TLE_LINE2": "2 47624  53.0474 204.0283 0012322  86.7684 273.4729 15.40084951262704",
    "COMMENT": "Grouped by shell and plane from TLE"
  },
  {
    "OBJECT_NAME": "STARLINK-2022",
    "OBJECT_ID": "21012Z",
    "EPOCH": "2025-11-10T17:02:06.007200",
    "MEAN_MOTION": 15.43365189,
    "ECCENTRICITY": 0.0009533,
    "INCLINATION": 53.0285,
    "RA_OF_ASC_NODE": 200.7463,
    "ARG_OF_PERICENTER": 102.3299,
    "MEAN_ANOMALY": 257.8774,
    "EPHEMERIS_TYPE": 0,
    "CLASSIFICATION_TYPE": "U",
    "NORAD_CAT_ID": 47643,
    "ELEMENT_SET_NO": 999,
    "REV_AT_EPOCH": 26268,
    "BSTAR": 0.0027897,
    "MEAN_MOTION_DOT": 0.00128312,
    "MEAN_MOTION_DDOT": 0.0,
    "TLE_LINE1": "1 47643U 21012Z   25314.70979175  .00128312  00000+0  27897-2 0  9991",
    "TLE_LINE2": "2 47643  53.0285 200.7463 0009533 102.3299 257.8774 15.43365189262686",
    "COMMENT": "Grouped by shell and plane from TLE"
  },
  {
    "OBJECT_NAME": "STARLINK-2095",
    "OBJECT_ID": "21012BM",
    "EPOCH": "2025-11-11T02:15:55.972512",
    "MEAN_MOTION": 15.41636219,
    "ECCENTRICITY": 0.0005026,
    "INCLINATION": 53.0402,
    "RA_OF_ASC_NODE": 202.039,
    "ARG_OF_PERICENTER": 148.7039,
    "MEAN_ANOMALY": 211.4266,
    "EPHEMERIS_TYPE": 0,
    "CLASSIFICATION_TYPE": "U",
    "NORAD_CAT_ID": 47679,
    "ELEMENT_SET_NO": 999,
    "REV_AT_EPOCH": 26271,
    "BSTAR": 0.0020093,
    "MEAN_MOTION_DOT": 0.00086522,
    "MEAN_MOTION_DDOT": 0.0,
    "TLE_LINE1": "1 47679U 21012BM  25315.09439783  .00086522  00000+0  20093-2 0  9996",
    "TLE_LINE2": "2 47679  53.0402 202.0390 0005026 148.7039 211.4266 15.41636219262718",
    "COMMENT": "Grouped by shell and plane from TLE"
  },
  {
    "OBJECT_NAME": "STARLINK-30710",
    "OBJECT_ID": "23148D",
    "EPOCH": "2025-11-11T00:04:33.741984",
    "MEAN_MOTION": 15.30184287,
    "ECCENTRICITY": 0.0001265,
    "INCLINATION": 53.1625,
    "RA_OF_ASC_NODE": 205.5098,
    "ARG_OF_PERICENTER": 102.3861,
    "MEAN_ANOMALY": 257.7281,
    "EPHEMERIS_TYPE": 0,
    "CLASSIFICATION_TYPE": "U",
    "NORAD_CAT_ID": 57938,
    "ELEMENT_SET_NO": 999,
    "REV_AT_EPOCH": 12038,
    "BSTAR": 7.662000000000001e-05,
    "MEAN_MOTION_DOT": 1.91e-05,
    "MEAN_MOTION_DDOT": 0.0,
    "TLE_LINE1": "1 57938U 23148D   25315.00316831  .00001910  00000+0  76620-4 0  9993",
    "TLE_LINE2": "2 57938  53.1625 205.5098 0001265 102.3861 257.7281 15.30184287120385",
    "COMMENT": "Grouped by shell and plane from TLE"
  },
  {
    "OBJECT_NAME": "STARLINK-30715",
    "OBJECT_ID": "23148G",
    "EPOCH": "2025-11-11T03:00:28.125792",
    "MEAN_MOTION": 15.30204104,
    "ECCENTRICITY": 0.0001134,
    "INCLINATION": 53.1598,
    "RA_OF_ASC_NODE": 204.7074,
    "ARG_OF_PERICENTER": 86.3559,
    "MEAN_ANOMALY": 273.7571,
    "EPHEMERIS_TYPE": 0,
    "CLASSIFICATION_TYPE": "U",
    "NORAD_CAT_ID": 57941,
    "ELEMENT_SET_NO": 999,
    "REV_AT_EPOCH": 12041,
    "BSTAR": 4.1558e-06,
    "MEAN_MOTION_DOT": -2.36e-06,
    "MEAN_MOTION_DDOT": 0.0,
    "TLE_LINE1": "1 57941U 23148G   25315.12532553 -.00000236  00000+0  41558-5 0  9995",
    "TLE_LINE2": "2 57941  53.1598 204.7074 0001134  86.3559 273.7571 15.30204104120418",
    "COMMENT": "Grouped by shell and plane from TLE"
  },
  {
    "OBJECT_NAME": "STARLINK-30700",
    "OBJECT_ID": "23148U",
    "EPOCH": "2025-11-11T02:37:46.560288",
    "MEAN_MOTION": 15.30172487,
    "ECCENTRICITY": 0.0001849,
    "INCLINATION": 53.1598,
    "RA_OF_ASC_NODE": 205.0044,
    "ARG_OF_PERICENTER": 94.5018,
    "MEAN_ANOMALY": 265.6194,
    "EPHEMERIS_TYPE": 0,
    "CLASSIFICATION_TYPE": "U",
    "NORAD_CAT_ID": 57953,
    "ELEMENT_SET_NO": 999,
    "REV_AT_EPOCH": 12040,
    "BSTAR": 0.00030565999999999997,
    "MEAN_MOTION_DOT": 8.696e-05,
    "MEAN_MOTION_DDOT": 0.0,
    "TLE_LINE1": "1 57953U 23148U   25315.10956667  .00008696  00000+0  30566-3 0  9994",
    "TLE_LINE2": "2 57953  53.1598 205.0044 0001849  94.5018 265.6194 15.30172487120404",
    "COMMENT": "Grouped by shell and plane from TLE"
  },
  {
    "OBJECT_NAME": "STARLINK-30703",
    "OBJECT_ID": "23148V",
    "EPOCH": "2025-11-11T00:25:44.442336",
    "MEAN_MOTION": 15.30221712,
    "ECCENTRICITY": 0.0001492,
    "INCLINATION": 53.161,
    "RA_OF_ASC_NODE": 205.395,
    "ARG_OF_PERICENTER": 92.2119,
    "MEAN_ANOMALY": 267.9052,
    "EPHEMERIS_TYPE": 0,
    "CLASSIFICATION_TYPE": "U",
    "NORAD_CAT_ID": 57954,
    "ELEMENT_SET_NO": 999,
    "REV_AT_EPOCH": 12039,
    "BSTAR": 0.00017172999999999998,
    "MEAN_MOTION_DOT": 4.734e-05,
    "MEAN_MOTION_DDOT": 0.0,
    "TLE_LINE1": "1 57954U 23148V   25315.01787549  .00004734  00000+0  17173-3 0  9994",
    "TLE_LINE2": "2 57954  53.1610 205.3950 0001492  92.2119 267.9052 15.30221712120392",
    "COMMENT": "Grouped by shell and plane from TLE"
  },
  {
    "OBJECT_NAME": "STARLINK-30702",
    "OBJECT_ID": "23148W",
    "EPOCH": "2025-11-11T02:05:54.615552",
    "MEAN_MOTION": 15.30200077,
    "ECCENTRICITY": 0.00011,
    "INCLINATION": 53.1599,
    "RA_OF_ASC_NODE": 205.1104,
    "ARG_OF_PERICENTER": 95.5748,
    "MEAN_ANOMALY": 264.5378,
    "EPHEMERIS_TYPE": 0,
    "CLASSIFICATION_TYPE": "U",
    "NORAD_CAT_ID": 57955,
    "ELEMENT_SET_NO": 999,
    "REV_AT_EPOCH": 12040,
    "BSTAR": 3.2004e-05,
    "MEAN_MOTION_DOT": 5.89e-06,
    "MEAN_MOTION_DDOT": 0.0,
    "TLE_LINE1": "1 57955U 23148W   25315.08743768  .00000589  00000+0  32004-4 0  9992",
    "TLE_LINE2": "2 57955  53.1599 205.1104 0001100  95.5748 264.5378 15.30200077120405",
    "COMMENT": "Grouped by shell and plane from TLE"
  },
  {
    "OBJECT_NAME": "STARLINK-30994",
    "OBJECT_ID": "23186L",
    "EPOCH": "2025-11-11T03:22:29.948160",
    "MEAN_MOTION": 15.27592351,
    "ECCENTRICITY": 5.15e-05,
    "INCLINATION": 42.9971,
    "RA_OF_ASC_NODE": 209.6677,
    "ARG_OF_PERICENTER": 263.1224,
    "MEAN_ANOMALY": 96.9568,
    "EPHEMERIS_TYPE": 0,
    "CLASSIFICATION_TYPE": "U",
    "NORAD_CAT_ID": 58483,
    "ELEMENT_SET_NO": 999,
    "REV_AT_EPOCH": 10967,
    "BSTAR": 0.00016916999999999998,
    "MEAN_MOTION_DOT": 4.398e-05,
    "MEAN_MOTION_DDOT": 0.0,
    "TLE_LINE1": "1 58483U 23186L   25315.14062440  .00004398  00000+0  16917-3 0  9995",
    "TLE_LINE2": "2 58483  42.9971 209.6677 0000515 263.1224  96.9568 15.27592351109676",
    "COMMENT": "Grouped by shell and plane from TLE"
  },
  {
    "OBJECT_NAME": "STARLINK-31127",
    "OBJECT_ID": "24011A",
    "EPOCH": "2025-11-11T02:28:33.153600",
    "MEAN_MOTION": 15.30197801,
    "ECCENTRICITY": 9.38e-05,
    "INCLINATION": 53.1611,
    "RA_OF_ASC_NODE": 204.5332,
    "ARG_OF_PERICENTER": 97.048,
    "MEAN_ANOMALY": 263.0628,
    "EPHEMERIS_TYPE": 0,
    "CLASSIFICATION_TYPE": "U",
    "NORAD_CAT_ID": 58765,
    "ELEMENT_SET_NO": 999,
    "REV_AT_EPOCH": 10211,
    "BSTAR": 2.1357000000000002e-05,
    "MEAN_MOTION_DOT": 2.74e-06,
    "MEAN_MOTION_DDOT": 0.0,
    "TLE_LINE1": "1 58765U 24011A   25315.10316150  .00000274  00000+0  21357-4 0  9996",
    "TLE_LINE2": "2 58765  53.1611 204.5332 0000938  97.0480 263.0628 15.30197801102114",
    "COMMENT": "Grouped by shell and plane from TLE"
  },
  {
    "OBJECT_NAME": "STARLINK-31114",
    "OBJECT_ID": "24011B",
    "EPOCH": "2025-11-11T05:49:34.202208",
    "MEAN_MOTION": 15.30200008,
    "ECCENTRICITY": 0.000124,
    "INCLINATION": 53.16,
    "RA_OF_ASC_NODE": 201.8763,
    "ARG_OF_PERICENTER": 82.5516,
    "MEAN_ANOMALY": 277.5625,
    "EPHEMERIS_TYPE": 0,
    "CLASSIFICATION_TYPE": "U",
    "NORAD_CAT_ID": 58766,
    "ELEMENT_SET_NO": 999,
    "REV_AT_EPOCH": 10216,
    "BSTAR": 5.142e-05,
    "MEAN_MOTION_DOT": 1.164e-05,
    "MEAN_MOTION_DDOT": 0.0,
    "TLE_LINE1": "1 58766U 24011B   25315.24275697  .00001164  00000+0  51420-4 0  9995",
    "TLE_LINE2": "2 58766  53.1600 201.8763 0001240  82.5516 277.5625 15.30200008102163",
    "COMMENT": "Grouped by shell and plane from TLE"
  },
  {
    "OBJECT_NAME": "STARLINK-31140",
    "OBJECT_ID": "24011C",
    "EPOCH": "2025-11-10T10:38:54.173184",
    "MEAN_MOTION": 15.30206377,
    "ECCENTRICITY": 0.000132,
    "INCLINATION": 53.1592,
    "RA_OF_ASC_NODE": 207.5322,
    "ARG_OF_PERICENTER": 81.8834,
    "MEAN_ANOMALY": 278.2317,
    "EPHEMERIS_TYPE": 0,
    "CLASSIFICATION_TYPE": "U",
    "NORAD_CAT_ID": 58767,
    "ELEMENT_SET_NO": 999,
    "REV_AT_EPOCH": 10201,
    "BSTAR": 0.0002163,
    "MEAN_MOTION_DOT": 6.054e-05,
    "MEAN_MOTION_DDOT": 0.0,
    "TLE_LINE1": "1 58767U 24011C   25314.44368256  .00006054  00000+0  21630-3 0  9993",
    "TLE_LINE2": "2 58767  53.1592 207.5322 0001320  81.8834 278.2317 15.30206377102017",
    "COMMENT": "Grouped by shell and plane from TLE"
  },
  {
    "OBJECT_NAME": "STARLINK-31146",
    "OBJECT_ID": "24011E",
    "EPOCH": "2025-11-10T16:50:33.494784",
    "MEAN_MOTION": 15.30209256,
    "ECCENTRICITY": 1.23e-05,
    "INCLINATION": 53.1602,
    "RA_OF_ASC_NODE": 206.2991,
    "ARG_OF_PERICENTER": 65.927,
    "MEAN_ANOMALY": 294.1744,
    "EPHEMERIS_TYPE": 0,
    "CLASSIFICATION_TYPE": "U",
    "NORAD_CAT_ID": 58769,
    "ELEMENT_SET_NO": 999,
    "REV_AT_EPOCH": 10205,
    "BSTAR": 0.0002591,
    "MEAN_MOTION_DOT": 7.325e-05,
    "MEAN_MOTION_DDOT": 0.0,
    "TLE_LINE1": "1 58769U 24011E   25314.70177656  .00007325  00000+0  25910-3 0  9993",
    "TLE_LINE2": "2 58769  53.1602 206.2991 0000123  65.9270 294.1744 15.30209256102050",
    "COMMENT": "Grouped by shell and plane from TLE"
  }
]